{
  "type": "FeatureCollection",
  "properties": {
    "crs": "EPSG:4326",
    "source": "OpenStreetMap contributors",
    "license": "ODbL 1.0",
    "downloaded_at": "2026-08-10T04:00:37.115980+00:00",
    "source_urls": {
      "nominatim": "https://nominatim.openstreetmap.org/lookup?osm_ids=R13210714%2CR13202425%2CR13210712%2CR13202424%2CR13202423%2CR13210713%2CR13202426%2CR13210719%2CR13202422%2CR13210718%2CR13202421%2CR13210716%2CR13210717%2CR13202420%2CR13210715&format=jsonv2&polygon_geojson=1&addressdetails=1&extratags=1",
      "osm_api": "https://api.openstreetmap.org/api/0.6/relations.json?relations=13210714%2C13202425%2C13210712%2C13202424%2C13202423%2C13210713%2C13202426%2C13210719%2C13202422%2C13210718%2C13202421%2C13210716%2C13210717%2C13202420%2C13210715"
    }
  },
  "features": [
    {
      "type": "Feature",
      "properties": {
        "name": "西长安街街道",
        "adcode": "110102001",
        "osm_relation_id": 13210714,
        "admin_level": "8",
        "admin_type": "subdistrict",
        "source": "OpenStreetMap contributors",
        "license": "ODbL 1.0",
        "downloaded_at": "2026-08-10T04:00:37.115980+00:00",
        "clean_note": "填平北京市第161中学（和平门校区）异常inner内环"
      },
      "geometry": {
        "type": "Polygon",
        "coordinates": [
          [
            [
              116.3672919,
              39.9210693
            ],
            [
              116.3678835,
              39.9044338
            ],
            [
              116.3679871,
              39.9008652
            ],
            [
              116.3681236,
              39.8983514
            ],
            [
              116.3779927,
              39.8986626
            ],
            [
              116.3860991,
              39.8989181
            ],
            [
              116.3867466,
              39.8989281
            ],
            [
              116.3870996,
              39.8989231
            ],
            [
              116.387873,
              39.8988757
            ],
            [
              116.3897731,
              39.8987234
            ],
            [
              116.3897173,
              39.8990453
            ],
            [
              116.3896403,
              39.9003393
            ],
            [
              116.3895036,
              39.9029761
            ],
            [
              116.3893703,
              39.9056095
            ],
            [
              116.3893227,
              39.9065481
            ],
            [
              116.3885066,
              39.9065321
            ],
            [
              116.3885016,
              39.9066328
            ],
            [
              116.3858064,
              39.9065723
            ],
            [
              116.3858082,
              39.9067864
            ],
            [
              116.386067,
              39.9067903
            ],
            [
              116.3863097,
              39.9070093
            ],
            [
              116.3865552,
              39.9072261
            ],
            [
              116.3864702,
              39.9090768
            ],
            [
              116.3864068,
              39.9090764
            ],
            [
              116.386397,
              39.9092783
            ],
            [
              116.3855982,
              39.9092668
            ],
            [
              116.385562,
              39.9102915
            ],
            [
              116.3855462,
              39.9108762
            ],
            [
              116.3854912,
              39.910876
            ],
            [
              116.3854876,
              39.9109724
            ],
            [
              116.3858218,
              39.9109847
            ],
            [
              116.3858087,
              39.9115304
            ],
            [
              116.3863698,
              39.911554
            ],
            [
              116.3863482,
              39.9120788
            ],
            [
              116.3863166,
              39.9132294
            ],
            [
              116.3862988,
              39.9136226
            ],
            [
              116.3862715,
              39.9136219
            ],
            [
              116.3862657,
              39.9137263
            ],
            [
              116.3859649,
              39.9195828
            ],
            [
              116.3859091,
              39.9210602
            ],
            [
              116.3881468,
              39.921138
            ],
            [
              116.3892274,
              39.9211726
            ],
            [
              116.3896376,
              39.9211889
            ],
            [
              116.3902804,
              39.9212139
            ],
            [
              116.3902449,
              39.9218131
            ],
            [
              116.3858199,
              39.9217032
            ],
            [
              116.3855362,
              39.9216782
            ],
            [
              116.3854224,
              39.9216503
            ],
            [
              116.3852601,
              39.921577
            ],
            [
              116.3850835,
              39.9214426
            ],
            [
              116.3848723,
              39.9212046
            ],
            [
              116.3845992,
              39.9208579
            ],
            [
              116.3833904,
              39.9208471
            ],
            [
              116.3830778,
              39.9208587
            ],
            [
              116.3827668,
              39.9209029
            ],
            [
              116.3824179,
              39.9210046
            ],
            [
              116.3822566,
              39.9210546
            ],
            [
              116.3821018,
              39.9210852
            ],
            [
              116.3818186,
              39.9210848
            ],
            [
              116.3808515,
              39.921051
            ],
            [
              116.3804883,
              39.9210621
            ],
            [
              116.3802246,
              39.9211046
            ],
            [
              116.3799556,
              39.921124
            ],
            [
              116.3782994,
              39.9210783
            ],
            [
              116.3780418,
              39.9211045
            ],
            [
              116.3775937,
              39.9212221
            ],
            [
              116.3773541,
              39.9212462
            ],
            [
              116.3672919,
              39.9210693
            ]
          ]
        ]
      }
    },
    {
      "type": "Feature",
      "properties": {
        "name": "新街口街道",
        "adcode": "110102003",
        "osm_relation_id": 13202425,
        "admin_level": "8",
        "admin_type": "subdistrict",
        "source": "OpenStreetMap contributors",
        "license": "ODbL 1.0",
        "downloaded_at": "2026-08-10T04:00:37.115980+00:00",
        "clean_note": "几何有效，无专项修复"
      },
      "geometry": {
        "type": "Polygon",
        "coordinates": [
          [
            [
              116.3493003,
              39.9402801
            ],
            [
              116.3493579,
              39.9394068
            ],
            [
              116.3493981,
              39.9380289
            ],
            [
              116.3494593,
              39.9365199
            ],
            [
              116.3496269,
              39.9328359
            ],
            [
              116.3498715,
              39.9271459
            ],
            [
              116.3500629,
              39.9222736
            ],
            [
              116.3510831,
              39.9222934
            ],
            [
              116.3539056,
              39.9223482
            ],
            [
              116.3672525,
              39.9226073
            ],
            [
              116.3660825,
              39.9445102
            ],
            [
              116.3659636,
              39.9468043
            ],
            [
              116.3657495,
              39.9472253
            ],
            [
              116.3649919,
              39.9471121
            ],
            [
              116.3636959,
              39.9467649
            ],
            [
              116.3618873,
              39.9461259
            ],
            [
              116.3605663,
              39.9455133
            ],
            [
              116.3594516,
              39.9451082
            ],
            [
              116.3560493,
              39.9441399
            ],
            [
              116.3551601,
              39.9437793
            ],
            [
              116.3538185,
              39.9434627
            ],
            [
              116.3527731,
              39.9432214
            ],
            [
              116.352438,
              39.9430534
            ],
            [
              116.3499636,
              39.9426532
            ],
            [
              116.349905,
              39.9423067
            ],
            [
              116.3497977,
              39.9419807
            ],
            [
              116.3495642,
              39.9415677
            ],
            [
              116.3494391,
              39.9413194
            ],
            [
              116.3493425,
              39.9410272
            ],
            [
              116.3493127,
              39.9408134
            ],
            [
              116.3493006,
              39.9405761
            ],
            [
              116.3493003,
              39.9402801
            ]
          ]
        ]
      }
    },
    {
      "type": "Feature",
      "properties": {
        "name": "月坛街道",
        "adcode": "110102007",
        "osm_relation_id": 13210712,
        "admin_level": "8",
        "admin_type": "subdistrict",
        "source": "OpenStreetMap contributors",
        "license": "ODbL 1.0",
        "downloaded_at": "2026-08-10T04:00:37.115980+00:00",
        "clean_note": "几何有效，无专项修复"
      },
      "geometry": {
        "type": "Polygon",
        "coordinates": [
          [
            [
              116.3282066,
              39.910189
            ],
            [
              116.3289758,
              39.9080753
            ],
            [
              116.3290439,
              39.9060279
            ],
            [
              116.3285584,
              39.9060675
            ],
            [
              116.3286567,
              39.9031553
            ],
            [
              116.3288487,
              39.902787
            ],
            [
              116.3292694,
              39.9023029
            ],
            [
              116.3296371,
              39.9020261
            ],
            [
              116.3289776,
              39.9017929
            ],
            [
              116.3289859,
              39.9016084
            ],
            [
              116.3291048,
              39.9016119
            ],
            [
              116.3291277,
              39.9013102
            ],
            [
              116.3288213,
              39.9013102
            ],
            [
              116.3288167,
              39.9010576
            ],
            [
              116.328643,
              39.9010506
            ],
            [
              116.3286866,
              39.8974471
            ],
            [
              116.3316741,
              39.8974074
            ],
            [
              116.3316612,
              39.8970304
            ],
            [
              116.3319005,
              39.8970304
            ],
            [
              116.3319279,
              39.8961112
            ],
            [
              116.339165,
              39.8964615
            ],
            [
              116.3430754,
              39.8965654
            ],
            [
              116.3429526,
              39.8982937
            ],
            [
              116.3432774,
              39.8985678
            ],
            [
              116.3437069,
              39.8987284
            ],
            [
              116.350605,
              39.8989474
            ],
            [
              116.3505852,
              39.8987819
            ],
            [
              116.3504985,
              39.8985039
            ],
            [
              116.3503693,
              39.8982051
            ],
            [
              116.3505409,
              39.8979748
            ],
            [
              116.3508879,
              39.8977594
            ],
            [
              116.3513881,
              39.897642
            ],
            [
              116.3519923,
              39.8976483
            ],
            [
              116.3520025,
              39.8977579
            ],
            [
              116.3540312,
              39.8978679
            ],
            [
              116.3540252,
              39.8979864
            ],
            [
              116.3540159,
              39.8981715
            ],
            [
              116.3535224,
              39.8983328
            ],
            [
              116.3527821,
              39.8986917
            ],
            [
              116.3518984,
              39.8993272
            ],
            [
              116.3509736,
              39.9004266
            ],
            [
              116.3505186,
              39.901277
            ],
            [
              116.3503101,
              39.9056782
            ],
            [
              116.35028,
              39.9066664
            ],
            [
              116.3502648,
              39.9079724
            ],
            [
              116.3502684,
              39.9081726
            ],
            [
              116.3503189,
              39.9086109
            ],
            [
              116.3504022,
              39.909278
            ],
            [
              116.3504668,
              39.9098075
            ],
            [
              116.3505347,
              39.9104219
            ],
            [
              116.3505557,
              39.9109802
            ],
            [
              116.3503219,
              39.9170563
            ],
            [
              116.3283152,
              39.916927
            ],
            [
              116.3282107,
              39.9104413
            ],
            [
              116.3282066,
              39.910189
            ]
          ]
        ]
      }
    },
    {
      "type": "Feature",
      "properties": {
        "name": "展览路街道",
        "adcode": "110102009",
        "osm_relation_id": 13202424,
        "admin_level": "8",
        "admin_type": "subdistrict",
        "source": "OpenStreetMap contributors",
        "license": "ODbL 1.0",
        "downloaded_at": "2026-08-10T04:00:37.115980+00:00",
        "clean_note": "几何有效，无专项修复"
      },
      "geometry": {
        "type": "Polygon",
        "coordinates": [
          [
            [
              116.3218631,
              39.9409845
            ],
            [
              116.3224631,
              39.9405308
            ],
            [
              116.3229016,
              39.9386587
            ],
            [
              116.3240047,
              39.9385867
            ],
            [
              116.3242588,
              39.9382501
            ],
            [
              116.3244822,
              39.937738
            ],
            [
              116.324503,
              39.937544
            ],
            [
              116.3247229,
              39.9372036
            ],
            [
              116.3249552,
              39.9371304
            ],
            [
              116.3268471,
              39.9369714
            ],
            [
              116.328391,
              39.9216278
            ],
            [
              116.3283152,
              39.916927
            ],
            [
              116.3503219,
              39.9170563
            ],
            [
              116.3500714,
              39.9220582
            ],
            [
              116.3500629,
              39.9222736
            ],
            [
              116.3498715,
              39.9271459
            ],
            [
              116.3496269,
              39.9328359
            ],
            [
              116.3494593,
              39.9365199
            ],
            [
              116.3493981,
              39.9380289
            ],
            [
              116.3493579,
              39.9394068
            ],
            [
              116.3493003,
              39.9402801
            ],
            [
              116.3493006,
              39.9405761
            ],
            [
              116.3493127,
              39.9408134
            ],
            [
              116.3493425,
              39.9410272
            ],
            [
              116.3494391,
              39.9413194
            ],
            [
              116.3495642,
              39.9415677
            ],
            [
              116.3497977,
              39.9419807
            ],
            [
              116.349905,
              39.9423067
            ],
            [
              116.3499636,
              39.9426532
            ],
            [
              116.3501569,
              39.94333
            ],
            [
              116.3499701,
              39.943419
            ],
            [
              116.3501362,
              39.9441314
            ],
            [
              116.3501344,
              39.9450692
            ],
            [
              116.3501027,
              39.9467786
            ],
            [
              116.3500693,
              39.9478463
            ],
            [
              116.3499122,
              39.9486725
            ],
            [
              116.3494177,
              39.9503223
            ],
            [
              116.3458231,
              39.9494202
            ],
            [
              116.3456392,
              39.949358
            ],
            [
              116.3455418,
              39.949325
            ],
            [
              116.3454158,
              39.9484583
            ],
            [
              116.3449632,
              39.9463663
            ],
            [
              116.34485,
              39.9455805
            ],
            [
              116.3449565,
              39.9447232
            ],
            [
              116.3451695,
              39.9441109
            ],
            [
              116.3453758,
              39.9437741
            ],
            [
              116.3456687,
              39.9437945
            ],
            [
              116.3461812,
              39.9423963
            ],
            [
              116.3458484,
              39.9419013
            ],
            [
              116.3453902,
              39.941755
            ],
            [
              116.3440013,
              39.9415261
            ],
            [
              116.3415435,
              39.9421417
            ],
            [
              116.3410216,
              39.9422504
            ],
            [
              116.3404221,
              39.9422686
            ],
            [
              116.3394216,
              39.9421861
            ],
            [
              116.337667,
              39.9419141
            ],
            [
              116.3368818,
              39.9417682
            ],
            [
              116.3365474,
              39.9416728
            ],
            [
              116.3356919,
              39.9408738
            ],
            [
              116.3349687,
              39.9407664
            ],
            [
              116.3344865,
              39.9408439
            ],
            [
              116.3339188,
              39.9414223
            ],
            [
              116.3334588,
              39.941659
            ],
            [
              116.3331478,
              39.9416005
            ],
            [
              116.3325508,
              39.9415021
            ],
            [
              116.3318159,
              39.9414723
            ],
            [
              116.330572,
              39.941704
            ],
            [
              116.3297916,
              39.9417181
            ],
            [
              116.3285653,
              39.9420729
            ],
            [
              116.3280607,
              39.9419964
            ],
            [
              116.3276911,
              39.9420189
            ],
            [
              116.3272695,
              39.9423597
            ],
            [
              116.3265984,
              39.9425327
            ],
            [
              116.3258667,
              39.9423737
            ],
            [
              116.3250456,
              39.941922
            ],
            [
              116.3232119,
              39.9416027
            ],
            [
              116.3218631,
              39.9409845
            ]
          ]
        ]
      }
    },
    {
      "type": "Feature",
      "properties": {
        "name": "德胜街道",
        "adcode": "110102010",
        "osm_relation_id": 13202423,
        "admin_level": "8",
        "admin_type": "subdistrict",
        "source": "OpenStreetMap contributors",
        "license": "ODbL 1.0",
        "downloaded_at": "2026-08-10T04:00:37.115980+00:00",
        "clean_note": "几何有效，无专项修复"
      },
      "geometry": {
        "type": "Polygon",
        "coordinates": [
          [
            [
              116.3639096,
              39.9664988
            ],
            [
              116.3642131,
              39.9625369
            ],
            [
              116.3643379,
              39.9612813
            ],
            [
              116.364351,
              39.961149
            ],
            [
              116.3643709,
              39.9609491
            ],
            [
              116.3644097,
              39.9605583
            ],
            [
              116.3644318,
              39.9603368
            ],
            [
              116.3656943,
              39.9476323
            ],
            [
              116.3657495,
              39.9472253
            ],
            [
              116.3660674,
              39.9472528
            ],
            [
              116.3666567,
              39.9472865
            ],
            [
              116.3698246,
              39.9474264
            ],
            [
              116.3730521,
              39.9474529
            ],
            [
              116.3791353,
              39.9474991
            ],
            [
              116.3875792,
              39.9475446
            ],
            [
              116.3875719,
              39.948084
            ],
            [
              116.387501,
              39.9500205
            ],
            [
              116.3873193,
              39.95002
            ],
            [
              116.3871297,
              39.9557273
            ],
            [
              116.3839187,
              39.9555765
            ],
            [
              116.3811182,
              39.9554217
            ],
            [
              116.3802915,
              39.9553737
            ],
            [
              116.3802446,
              39.9553772
            ],
            [
              116.3813259,
              39.9596932
            ],
            [
              116.3815418,
              39.9605876
            ],
            [
              116.3818177,
              39.9616482
            ],
            [
              116.3818943,
              39.9616503
            ],
            [
              116.3823867,
              39.9616639
            ],
            [
              116.382679,
              39.9616719
            ],
            [
              116.3833205,
              39.9616896
            ],
            [
              116.3836544,
              39.961696
            ],
            [
              116.3836637,
              39.9621701
            ],
            [
              116.3829976,
              39.9621537
            ],
            [
              116.3829669,
              39.9624865
            ],
            [
              116.3829619,
              39.9627999
            ],
            [
              116.3822295,
              39.9628024
            ],
            [
              116.3822502,
              39.9635796
            ],
            [
              116.3818445,
              39.9635735
            ],
            [
              116.3818325,
              39.9643633
            ],
            [
              116.3818915,
              39.9644853
            ],
            [
              116.3819439,
              39.964495
            ],
            [
              116.3823296,
              39.964578
            ],
            [
              116.3832293,
              39.9647929
            ],
            [
              116.3834756,
              39.9648415
            ],
            [
              116.3838931,
              39.9649083
            ],
            [
              116.3838193,
              39.9667212
            ],
            [
              116.3847625,
              39.9667491
            ],
            [
              116.3850365,
              39.9667572
            ],
            [
              116.385276,
              39.9667643
            ],
            [
              116.3852707,
              39.9672617
            ],
            [
              116.385735,
              39.9673304
            ],
            [
              116.3866425,
              39.9676863
            ],
            [
              116.3877525,
              39.9678038
            ],
            [
              116.3880444,
              39.967967
            ],
            [
              116.3880485,
              39.9689761
            ],
            [
              116.3879056,
              39.9716171
            ],
            [
              116.3819707,
              39.9715025
            ],
            [
              116.3788998,
              39.9712518
            ],
            [
              116.3785241,
              39.9712469
            ],
            [
              116.3752491,
              39.9712044
            ],
            [
              116.3747328,
              39.9712349
            ],
            [
              116.3742381,
              39.9674939
            ],
            [
              116.374163,
              39.9666469
            ],
            [
              116.3685543,
              39.966608
            ],
            [
              116.3639096,
              39.9664988
            ]
          ]
        ]
      }
    },
    {
      "type": "Feature",
      "properties": {
        "name": "金融街街道",
        "adcode": "110102011",
        "osm_relation_id": 13210713,
        "admin_level": "8",
        "admin_type": "subdistrict",
        "source": "OpenStreetMap contributors",
        "license": "ODbL 1.0",
        "downloaded_at": "2026-08-10T04:00:37.115980+00:00",
        "clean_note": "几何有效，无专项修复"
      },
      "geometry": {
        "type": "Polygon",
        "coordinates": [
          [
            [
              116.3500629,
              39.9222736
            ],
            [
              116.3500714,
              39.9220582
            ],
            [
              116.3503219,
              39.9170563
            ],
            [
              116.3505557,
              39.9109802
            ],
            [
              116.3505347,
              39.9104219
            ],
            [
              116.3504668,
              39.9098075
            ],
            [
              116.3504022,
              39.909278
            ],
            [
              116.3503189,
              39.9086109
            ],
            [
              116.3502684,
              39.9081726
            ],
            [
              116.3502648,
              39.9079724
            ],
            [
              116.35028,
              39.9066664
            ],
            [
              116.3503101,
              39.9056782
            ],
            [
              116.3505186,
              39.901277
            ],
            [
              116.3509736,
              39.9004266
            ],
            [
              116.3518984,
              39.8993272
            ],
            [
              116.3527821,
              39.8986917
            ],
            [
              116.3535224,
              39.8983328
            ],
            [
              116.3540159,
              39.8981715
            ],
            [
              116.3540252,
              39.8979864
            ],
            [
              116.3540312,
              39.8978679
            ],
            [
              116.3562273,
              39.8979985
            ],
            [
              116.3681236,
              39.8983514
            ],
            [
              116.3679871,
              39.9008652
            ],
            [
              116.3678835,
              39.9044338
            ],
            [
              116.3672919,
              39.9210693
            ],
            [
              116.3672525,
              39.9226073
            ],
            [
              116.3539056,
              39.9223482
            ],
            [
              116.3510831,
              39.9222934
            ],
            [
              116.3500629,
              39.9222736
            ]
          ]
        ]
      }
    },
    {
      "type": "Feature",
      "properties": {
        "name": "什刹海街道",
        "adcode": "110102012",
        "osm_relation_id": 13202426,
        "admin_level": "8",
        "admin_type": "subdistrict",
        "source": "OpenStreetMap contributors",
        "license": "ODbL 1.0",
        "downloaded_at": "2026-08-10T04:00:37.115980+00:00",
        "clean_note": "几何有效，无专项修复"
      },
      "geometry": {
        "type": "Polygon",
        "coordinates": [
          [
            [
              116.3657495,
              39.9472253
            ],
            [
              116.3659636,
              39.9468043
            ],
            [
              116.3660825,
              39.9445102
            ],
            [
              116.3672525,
              39.9226073
            ],
            [
              116.3672919,
              39.9210693
            ],
            [
              116.3773541,
              39.9212462
            ],
            [
              116.3775937,
              39.9212221
            ],
            [
              116.3780418,
              39.9211045
            ],
            [
              116.3782994,
              39.9210783
            ],
            [
              116.3799556,
              39.921124
            ],
            [
              116.3802246,
              39.9211046
            ],
            [
              116.3804883,
              39.9210621
            ],
            [
              116.3808515,
              39.921051
            ],
            [
              116.3818186,
              39.9210848
            ],
            [
              116.3821018,
              39.9210852
            ],
            [
              116.3822566,
              39.9210546
            ],
            [
              116.3824179,
              39.9210046
            ],
            [
              116.3827668,
              39.9209029
            ],
            [
              116.3830778,
              39.9208587
            ],
            [
              116.3833904,
              39.9208471
            ],
            [
              116.3845992,
              39.9208579
            ],
            [
              116.3848723,
              39.9212046
            ],
            [
              116.3850835,
              39.9214426
            ],
            [
              116.3852601,
              39.921577
            ],
            [
              116.3854224,
              39.9216503
            ],
            [
              116.3855362,
              39.9216782
            ],
            [
              116.3858199,
              39.9217032
            ],
            [
              116.3902449,
              39.9218131
            ],
            [
              116.3902307,
              39.9220571
            ],
            [
              116.3916601,
              39.9221053
            ],
            [
              116.3930058,
              39.9221579
            ],
            [
              116.3929922,
              39.9224951
            ],
            [
              116.3929721,
              39.9229357
            ],
            [
              116.3929077,
              39.9245077
            ],
            [
              116.392911,
              39.9245421
            ],
            [
              116.3928559,
              39.9256613
            ],
            [
              116.3927916,
              39.926842
            ],
            [
              116.3903481,
              39.9267971
            ],
            [
              116.3901578,
              39.9313502
            ],
            [
              116.3901265,
              39.9319946
            ],
            [
              116.3901021,
              39.9324982
            ],
            [
              116.3899532,
              39.9352221
            ],
            [
              116.389929,
              39.935704
            ],
            [
              116.3898746,
              39.9366605
            ],
            [
              116.3898018,
              39.9381028
            ],
            [
              116.3897636,
              39.9386978
            ],
            [
              116.3888661,
              39.9391852
            ],
            [
              116.3879007,
              39.93924
            ],
            [
              116.3876623,
              39.9453588
            ],
            [
              116.3875792,
              39.9475446
            ],
            [
              116.3791353,
              39.9474991
            ],
            [
              116.3730521,
              39.9474529
            ],
            [
              116.3698246,
              39.9474264
            ],
            [
              116.3666567,
              39.9472865
            ],
            [
              116.3660674,
              39.9472528
            ],
            [
              116.3657495,
              39.9472253
            ]
          ]
        ]
      }
    },
    {
      "type": "Feature",
      "properties": {
        "name": "大栅栏街道",
        "adcode": "110102013",
        "osm_relation_id": 13210719,
        "admin_level": "8",
        "admin_type": "subdistrict",
        "source": "OpenStreetMap contributors",
        "license": "ODbL 1.0",
        "downloaded_at": "2026-08-10T04:00:37.115980+00:00",
        "clean_note": "几何有效，无专项修复"
      },
      "geometry": {
        "type": "Polygon",
        "coordinates": [
          [
            [
              116.3779927,
              39.8986626
            ],
            [
              116.3781855,
              39.8950457
            ],
            [
              116.378332,
              39.8939129
            ],
            [
              116.3784242,
              39.8923412
            ],
            [
              116.3784834,
              39.888092
            ],
            [
              116.3816089,
              39.8881822
            ],
            [
              116.3828202,
              39.8882512
            ],
            [
              116.3839066,
              39.8883606
            ],
            [
              116.3859503,
              39.8885663
            ],
            [
              116.3868485,
              39.8886757
            ],
            [
              116.3875153,
              39.8887961
            ],
            [
              116.3881397,
              39.8889328
            ],
            [
              116.3906734,
              39.8895745
            ],
            [
              116.391083,
              39.8896723
            ],
            [
              116.3920156,
              39.8899083
            ],
            [
              116.391589,
              39.8972132
            ],
            [
              116.3913927,
              39.8972791
            ],
            [
              116.3912252,
              39.8973339
            ],
            [
              116.3906553,
              39.8975278
            ],
            [
              116.3904771,
              39.8975876
            ],
            [
              116.3903351,
              39.8976436
            ],
            [
              116.3902387,
              39.8976858
            ],
            [
              116.3901215,
              39.8977545
            ],
            [
              116.3900143,
              39.8978368
            ],
            [
              116.3899041,
              39.897938
            ],
            [
              116.3898197,
              39.8980416
            ],
            [
              116.389756,
              39.8981618
            ],
            [
              116.3897538,
              39.8983073
            ],
            [
              116.3897858,
              39.8984686
            ],
            [
              116.3897731,
              39.8987234
            ],
            [
              116.387873,
              39.8988757
            ],
            [
              116.3870996,
              39.8989231
            ],
            [
              116.3867466,
              39.8989281
            ],
            [
              116.3860991,
              39.8989181
            ],
            [
              116.3779927,
              39.8986626
            ]
          ]
        ]
      }
    },
    {
      "type": "Feature",
      "properties": {
        "name": "天桥街道",
        "adcode": "110102014",
        "osm_relation_id": 13202422,
        "admin_level": "8",
        "admin_type": "subdistrict",
        "source": "OpenStreetMap contributors",
        "license": "ODbL 1.0",
        "downloaded_at": "2026-08-10T04:00:37.115980+00:00",
        "clean_note": "几何有效，无专项修复"
      },
      "geometry": {
        "type": "Polygon",
        "coordinates": [
          [
            [
              116.3784834,
              39.888092
            ],
            [
              116.3787333,
              39.8819581
            ],
            [
              116.3811267,
              39.8819643
            ],
            [
              116.3810988,
              39.8789863
            ],
            [
              116.3812947,
              39.8743097
            ],
            [
              116.3813784,
              39.8724386
            ],
            [
              116.3814848,
              39.8713964
            ],
            [
              116.3815537,
              39.870854
            ],
            [
              116.3815876,
              39.8702408
            ],
            [
              116.3839689,
              39.8703845
            ],
            [
              116.3930049,
              39.8707659
            ],
            [
              116.3929749,
              39.8715587
            ],
            [
              116.3929055,
              39.8728808
            ],
            [
              116.3928891,
              39.873193
            ],
            [
              116.3928808,
              39.8733815
            ],
            [
              116.3928569,
              39.873799
            ],
            [
              116.3928487,
              39.873988
            ],
            [
              116.3928243,
              39.8744379
            ],
            [
              116.3928157,
              39.874628
            ],
            [
              116.3927877,
              39.8751496
            ],
            [
              116.3927627,
              39.8755337
            ],
            [
              116.3927574,
              39.8756151
            ],
            [
              116.3927364,
              39.8759848
            ],
            [
              116.3927289,
              39.8761661
            ],
            [
              116.3927007,
              39.8767021
            ],
            [
              116.3926922,
              39.8768818
            ],
            [
              116.3926678,
              39.877319
            ],
            [
              116.3926398,
              39.8778462
            ],
            [
              116.3925984,
              39.8786248
            ],
            [
              116.392571,
              39.8786251
            ],
            [
              116.3925385,
              39.8786758
            ],
            [
              116.3925189,
              39.8791841
            ],
            [
              116.3925012,
              39.8793452
            ],
            [
              116.3924507,
              39.8798032
            ],
            [
              116.3923499,
              39.8819859
            ],
            [
              116.3923273,
              39.8823453
            ],
            [
              116.3923225,
              39.8824225
            ],
            [
              116.3921972,
              39.8848642
            ],
            [
              116.3921652,
              39.8852594
            ],
            [
              116.39215,
              39.8855991
            ],
            [
              116.39214,
              39.8859059
            ],
            [
              116.3921482,
              39.88623
            ],
            [
              116.3921568,
              39.886462
            ],
            [
              116.3920077,
              39.8897197
            ],
            [
              116.3920156,
              39.8899083
            ],
            [
              116.391083,
              39.8896723
            ],
            [
              116.3906734,
              39.8895745
            ],
            [
              116.3881397,
              39.8889328
            ],
            [
              116.3875153,
              39.8887961
            ],
            [
              116.3868485,
              39.8886757
            ],
            [
              116.3859503,
              39.8885663
            ],
            [
              116.3839066,
              39.8883606
            ],
            [
              116.3828202,
              39.8882512
            ],
            [
              116.3816089,
              39.8881822
            ],
            [
              116.3784834,
              39.888092
            ]
          ]
        ]
      }
    },
    {
      "type": "Feature",
      "properties": {
        "name": "椿树街道",
        "adcode": "110102015",
        "osm_relation_id": 13210718,
        "admin_level": "8",
        "admin_type": "subdistrict",
        "source": "OpenStreetMap contributors",
        "license": "ODbL 1.0",
        "downloaded_at": "2026-08-10T04:00:37.115980+00:00",
        "clean_note": "几何有效，无专项修复"
      },
      "geometry": {
        "type": "Polygon",
        "coordinates": [
          [
            [
              116.3681236,
              39.8983514
            ],
            [
              116.3682041,
              39.8965689
            ],
            [
              116.368198,
              39.8878922
            ],
            [
              116.3734375,
              39.8879287
            ],
            [
              116.3754662,
              39.888
            ],
            [
              116.3784834,
              39.888092
            ],
            [
              116.3784242,
              39.8923412
            ],
            [
              116.378332,
              39.8939129
            ],
            [
              116.3781855,
              39.8950457
            ],
            [
              116.3779927,
              39.8986626
            ],
            [
              116.3681236,
              39.8983514
            ]
          ]
        ]
      }
    },
    {
      "type": "Feature",
      "properties": {
        "name": "陶然亭街道",
        "adcode": "110102016",
        "osm_relation_id": 13202421,
        "admin_level": "8",
        "admin_type": "subdistrict",
        "source": "OpenStreetMap contributors",
        "license": "ODbL 1.0",
        "downloaded_at": "2026-08-10T04:00:37.115980+00:00",
        "clean_note": "几何有效，无专项修复"
      },
      "geometry": {
        "type": "Polygon",
        "coordinates": [
          [
            [
              116.3681154,
              39.8692612
            ],
            [
              116.375008,
              39.8697624
            ],
            [
              116.3815876,
              39.8702408
            ],
            [
              116.3815537,
              39.870854
            ],
            [
              116.3814848,
              39.8713964
            ],
            [
              116.3813784,
              39.8724386
            ],
            [
              116.3812947,
              39.8743097
            ],
            [
              116.3810988,
              39.8789863
            ],
            [
              116.3811267,
              39.8819643
            ],
            [
              116.3787333,
              39.8819581
            ],
            [
              116.3784834,
              39.888092
            ],
            [
              116.3754662,
              39.888
            ],
            [
              116.3734375,
              39.8879287
            ],
            [
              116.368198,
              39.8878922
            ],
            [
              116.3681667,
              39.8819298
            ],
            [
              116.3681154,
              39.8692612
            ]
          ]
        ]
      }
    },
    {
      "type": "Feature",
      "properties": {
        "name": "广安门内街道",
        "adcode": "110102017",
        "osm_relation_id": 13210716,
        "admin_level": "8",
        "admin_type": "subdistrict",
        "source": "OpenStreetMap contributors",
        "license": "ODbL 1.0",
        "downloaded_at": "2026-08-10T04:00:37.115980+00:00",
        "clean_note": "几何有效，无专项修复"
      },
      "geometry": {
        "type": "Polygon",
        "coordinates": [
          [
            [
              116.3429526,
              39.8982937
            ],
            [
              116.3430754,
              39.8965654
            ],
            [
              116.3434245,
              39.8917547
            ],
            [
              116.3433557,
              39.8892295
            ],
            [
              116.3433526,
              39.8881698
            ],
            [
              116.368198,
              39.8878922
            ],
            [
              116.3682041,
              39.8965689
            ],
            [
              116.3681236,
              39.8983514
            ],
            [
              116.3562273,
              39.8979985
            ],
            [
              116.3540312,
              39.8978679
            ],
            [
              116.3520025,
              39.8977579
            ],
            [
              116.3519923,
              39.8976483
            ],
            [
              116.3513881,
              39.897642
            ],
            [
              116.3508879,
              39.8977594
            ],
            [
              116.3505409,
              39.8979748
            ],
            [
              116.3503693,
              39.8982051
            ],
            [
              116.3504985,
              39.8985039
            ],
            [
              116.3505852,
              39.8987819
            ],
            [
              116.350605,
              39.8989474
            ],
            [
              116.3437069,
              39.8987284
            ],
            [
              116.3432774,
              39.8985678
            ],
            [
              116.3429526,
              39.8982937
            ]
          ]
        ]
      }
    },
    {
      "type": "Feature",
      "properties": {
        "name": "牛街街道",
        "adcode": "110102018",
        "osm_relation_id": 13210717,
        "admin_level": "8",
        "admin_type": "subdistrict",
        "source": "OpenStreetMap contributors",
        "license": "ODbL 1.0",
        "downloaded_at": "2026-08-10T04:00:37.115980+00:00",
        "clean_note": "几何有效，无专项修复"
      },
      "geometry": {
        "type": "Polygon",
        "coordinates": [
          [
            [
              116.3433376,
              39.8829448
            ],
            [
              116.3433672,
              39.8819195
            ],
            [
              116.3447485,
              39.8819144
            ],
            [
              116.3510187,
              39.8819135
            ],
            [
              116.3528302,
              39.8819368
            ],
            [
              116.3548414,
              39.8819275
            ],
            [
              116.3583241,
              39.8819131
            ],
            [
              116.3617827,
              39.8819321
            ],
            [
              116.3672566,
              39.8819297
            ],
            [
              116.3681667,
              39.8819298
            ],
            [
              116.368198,
              39.8878922
            ],
            [
              116.3433526,
              39.8881698
            ],
            [
              116.3433376,
              39.8829448
            ]
          ]
        ]
      }
    },
    {
      "type": "Feature",
      "properties": {
        "name": "白纸坊街道",
        "adcode": "110102019",
        "osm_relation_id": 13202420,
        "admin_level": "8",
        "admin_type": "subdistrict",
        "source": "OpenStreetMap contributors",
        "license": "ODbL 1.0",
        "downloaded_at": "2026-08-10T04:00:37.115980+00:00",
        "clean_note": "移除天津宁河区清河农场飞地，仅保留西城区本地边界"
      },
      "geometry": {
        "type": "Polygon",
        "coordinates": [
          [
            [
              116.3433672,
              39.8819195
            ],
            [
              116.3437113,
              39.8771523
            ],
            [
              116.3439363,
              39.8739472
            ],
            [
              116.3441443,
              39.8720159
            ],
            [
              116.3443252,
              39.8704822
            ],
            [
              116.3444587,
              39.8693304
            ],
            [
              116.3446358,
              39.8681547
            ],
            [
              116.3447658,
              39.867803
            ],
            [
              116.3448781,
              39.8676761
            ],
            [
              116.3451267,
              39.8675624
            ],
            [
              116.3462595,
              39.8676669
            ],
            [
              116.3681154,
              39.8692612
            ],
            [
              116.3681667,
              39.8819298
            ],
            [
              116.3672566,
              39.8819297
            ],
            [
              116.3617827,
              39.8819321
            ],
            [
              116.3583241,
              39.8819131
            ],
            [
              116.3548414,
              39.8819275
            ],
            [
              116.3528302,
              39.8819368
            ],
            [
              116.3510187,
              39.8819135
            ],
            [
              116.3447485,
              39.8819144
            ],
            [
              116.3433672,
              39.8819195
            ]
          ]
        ]
      }
    },
    {
      "type": "Feature",
      "properties": {
        "name": "广安门外街道",
        "adcode": "110102020",
        "osm_relation_id": 13210715,
        "admin_level": "8",
        "admin_type": "subdistrict",
        "source": "OpenStreetMap contributors",
        "license": "ODbL 1.0",
        "downloaded_at": "2026-08-10T04:00:37.115980+00:00",
        "clean_note": "几何有效，无专项修复"
      },
      "geometry": {
        "type": "Polygon",
        "coordinates": [
          [
            [
              116.3149201,
              39.8800808
            ],
            [
              116.3149299,
              39.8767892
            ],
            [
              116.3149236,
              39.8746463
            ],
            [
              116.3149327,
              39.8737449
            ],
            [
              116.3172175,
              39.8746479
            ],
            [
              116.3187638,
              39.8747998
            ],
            [
              116.3191581,
              39.8750037
            ],
            [
              116.3195353,
              39.8748326
            ],
            [
              116.3215752,
              39.8747932
            ],
            [
              116.3263151,
              39.8739512
            ],
            [
              116.3306481,
              39.8743028
            ],
            [
              116.3320845,
              39.874461
            ],
            [
              116.3353297,
              39.8746889
            ],
            [
              116.3360289,
              39.8746195
            ],
            [
              116.3366688,
              39.8744179
            ],
            [
              116.3375601,
              39.8738749
            ],
            [
              116.337651,
              39.8737354
            ],
            [
              116.3377722,
              39.8724097
            ],
            [
              116.3381177,
              39.8723167
            ],
            [
              116.3380874,
              39.8721492
            ],
            [
              116.3407287,
              39.872243
            ],
            [
              116.3431717,
              39.8722526
            ],
            [
              116.3429057,
              39.8695676
            ],
            [
              116.3429481,
              39.8688373
            ],
            [
              116.3431206,
              39.8684597
            ],
            [
              116.3434087,
              39.8680651
            ],
            [
              116.3442224,
              39.8675361
            ],
            [
              116.3451267,
              39.8675624
            ],
            [
              116.3448781,
              39.8676761
            ],
            [
              116.3447658,
              39.867803
            ],
            [
              116.3446358,
              39.8681547
            ],
            [
              116.3444587,
              39.8693304
            ],
            [
              116.3443252,
              39.8704822
            ],
            [
              116.3441443,
              39.8720159
            ],
            [
              116.3439363,
              39.8739472
            ],
            [
              116.3437113,
              39.8771523
            ],
            [
              116.3433672,
              39.8819195
            ],
            [
              116.3433376,
              39.8829448
            ],
            [
              116.3433526,
              39.8881698
            ],
            [
              116.3433557,
              39.8892295
            ],
            [
              116.3434245,
              39.8917547
            ],
            [
              116.3430754,
              39.8965654
            ],
            [
              116.339165,
              39.8964615
            ],
            [
              116.3319279,
              39.8961112
            ],
            [
              116.3197085,
              39.8956311
            ],
            [
              116.3197128,
              39.8946972
            ],
            [
              116.3196909,
              39.8927598
            ],
            [
              116.3195112,
              39.8926844
            ],
            [
              116.3194767,
              39.8926517
            ],
            [
              116.31944,
              39.8925731
            ],
            [
              116.3194513,
              39.89249
            ],
            [
              116.3194834,
              39.8923365
            ],
            [
              116.3196028,
              39.8922959
            ],
            [
              116.3198274,
              39.892248
            ],
            [
              116.319563,
              39.8910071
            ],
            [
              116.3196388,
              39.889433
            ],
            [
              116.3200674,
              39.8889398
            ],
            [
              116.3201188,
              39.8885255
            ],
            [
              116.3179674,
              39.8884466
            ],
            [
              116.318036,
              39.887585
            ],
            [
              116.3180574,
              39.8861387
            ],
            [
              116.317436,
              39.8861255
            ],
            [
              116.3174403,
              39.8857079
            ],
            [
              116.3172475,
              39.8856915
            ],
            [
              116.3172475,
              39.8855106
            ],
            [
              116.3173032,
              39.8854909
            ],
            [
              116.3173632,
              39.8850864
            ],
            [
              116.317286,
              39.8831198
            ],
            [
              116.3169646,
              39.88311
            ],
            [
              116.3169518,
              39.8828337
            ],
            [
              116.3167032,
              39.8828535
            ],
            [
              116.3166775,
              39.8827153
            ],
            [
              116.3162403,
              39.8827088
            ],
            [
              116.3162318,
              39.8825575
            ],
            [
              116.3157175,
              39.8825378
            ],
            [
              116.3156318,
              39.8823668
            ],
            [
              116.3155975,
              39.8810677
            ],
            [
              116.3158322,
              39.8808991
            ],
            [
              116.3158343,
              39.8801218
            ],
            [
              116.3149201,
              39.8800808
            ]
          ]
        ]
      }
    }
  ]
}