{
"type": "FeatureCollection",
"name": "xicheng_streets",
"crs": { "type": "name", "properties": { "name": "urn:ogc:def:crs:OGC:1.3:CRS84" } },
"features": [
{"type":"Feature","properties":{"fid":1,"name":"德胜街道","street_code":"XC01"},"geometry":{"type":"Polygon","coordinates":[[[116.374748755083388,39.971262470387977],[116.379206791522464,39.971302429333967],[116.380901366777053,39.971562161913454],[116.387888230903769,39.97168203815572],[116.388096794012029,39.968125620236108],[116.38767966779551,39.967805933157209],[116.386767204196886,39.967765972167236],[116.385541895935859,39.967306419103487],[116.385541895935859,39.966846862950419],[116.383899461458313,39.9667269782285],[116.383925531846842,39.964948663498731],[116.382387378923411,39.964529054401751],[116.381944182318364,39.963470029514646],[116.382178815815152,39.963509993015762],[116.382283097369282,39.963010447572884],[116.382934857082574,39.963070393218743],[116.382934857082574,39.962271113619231],[116.38329984252205,39.962251131509525],[116.383325912910564,39.962011345737601],[116.38256987164317,39.961671647787881],[116.381657408044532,39.961651665502977],[116.381579196878931,39.960612578641395],[116.380458170172034,39.955416907478593],[116.38744503429875,39.955776620508402],[116.387653597406967,39.947702606086104],[116.373190305144632,39.947475421827264],[116.36616484849857,39.947333686164988],[116.365707989024841,39.947309363629472],[116.365425326746333,39.947294315095569],[116.365409038391661,39.947667629940575],[116.365669742276978,39.947747575389748],[116.363870885468231,39.966472222496357],[116.374142618550025,39.966751954229544],[116.374748755083388,39.971262470387977]]]}},
{"type":"Feature","properties":{"fid":2,"name":"什刹海街道","street_code":"XC03"},"geometry":{"type":"Polygon","coordinates":[[[116.387653597406967,39.947702606086104],[116.387992512457899,39.939427751093831],[116.388931046445066,39.939387773519918],[116.389895650820776,39.938908040811221],[116.390573480922626,39.926953614942306],[116.392945886279065,39.926993599779529],[116.393180519775854,39.926713705428554],[116.393336942107041,39.922235240184996],[116.390521340145526,39.922115277266109],[116.390586516116869,39.921485468493678],[116.385048331018851,39.92130446701556],[116.384596401059127,39.920871219268221],[116.382994103929349,39.920839710234219],[116.38221349763532,39.921052395932399],[116.378382364113435,39.921028764220793],[116.377231996943323,39.921249326545414],[116.367104657392119,39.920957869036997],[116.367000693511713,39.9226392339867],[116.367207368746548,39.922643579085232],[116.366837607870437,39.931197524022231],[116.366570558348783,39.938317119753002],[116.366159712930894,39.942128634287251],[116.365954290221893,39.946380899924407],[116.365707989024841,39.947309363629472],[116.36616484849857,39.947333686164988],[116.373190305144632,39.947475421827264],[116.387653597406967,39.947702606086104]]]}},
{"type":"Feature","properties":{"fid":3,"name":"西长安街街道","street_code":"XC07"},"geometry":{"type":"Polygon","coordinates":[[[116.390586516116869,39.921485468493678],[116.390599551311126,39.921095583969581],[116.386089374095008,39.921005610302601],[116.386571676282912,39.911597711193515],[116.385789564626933,39.911557717365532],[116.385893846181062,39.911037795476624],[116.385633142295717,39.911037795476624],[116.385685283072803,39.910497872415014],[116.385581001518673,39.910397886195845],[116.385685283072803,39.90939801597704],[116.386519535505826,39.90939801597704],[116.38658471147717,39.907238246496441],[116.386415253951697,39.907038264396562],[116.386415253951697,39.90665829679849],[116.38923085591324,39.906758288475984],[116.389674052518288,39.898858496312052],[116.38880756659259,39.898953184551274],[116.387277167410915,39.899008342971975],[116.385705683687434,39.899000463200302],[116.378004048362072,39.898763985207189],[116.368177703581296,39.898462267023945],[116.367998246175958,39.898456756767096],[116.367104657392119,39.920957869036997],[116.377231996943323,39.921249326545414],[116.378382364113435,39.921028764220793],[116.38221349763532,39.921052395932399],[116.382994103929349,39.920839710234219],[116.384596401059127,39.920871219268221],[116.385048331018851,39.92130446701556],[116.390586516116869,39.921485468493678]]]}},
{"type":"Feature","properties":{"fid":4,"name":"大栅栏街道","street_code":"XC13"},"geometry":{"type":"Polygon","coordinates":[[[116.389674052518288,39.898858496312052],[116.389700122906802,39.898358478819318],[116.390026002763463,39.897898459503772],[116.390703832865313,39.897598445243013],[116.391420768549949,39.897358432888758],[116.391642366852466,39.897118419693911],[116.391994317097698,39.889957639445619],[116.389048938275636,39.889213087404194],[116.386666034851814,39.888740231927713],[116.383666863301173,39.888330421209787],[116.378490211035626,39.888109752885391],[116.378627159508326,39.891797973023692],[116.378004048362072,39.898763985207189],[116.385705683687434,39.899000463200302],[116.387277167410915,39.899008342971975],[116.38880756659259,39.898953184551274],[116.389674052518288,39.898858496312052]]]}},
{"type":"Feature","properties":{"fid":5,"name":"天桥街道","street_code":"XC15"},"geometry":{"type":"Polygon","coordinates":[[[116.391994317097698,39.889957639445619],[116.392593936033876,39.879855266878216],[116.392385372925617,39.879475148557539],[116.392463584091217,39.878754918592627],[116.392646076810948,39.878754918592627],[116.39301106225038,39.870811880933012],[116.381722584015819,39.870311658857212],[116.38118809594657,39.882025332169015],[116.378873666759077,39.881983296296411],[116.378490211035626,39.888109752885391],[116.383666863301173,39.888330421209787],[116.386666034851814,39.888740231927713],[116.389048938275636,39.889213087404194],[116.391994317097698,39.889957639445619]]]}},
{"type":"Feature","properties":{"fid":6,"name":"陶然亭街道","street_code":"XC14"},"geometry":{"type":"Polygon","coordinates":[[[116.381722584015819,39.870311658857212],[116.368218122755934,39.869331213007307],[116.368177991046394,39.881899224473891],[116.368219075588144,39.887983656381117],[116.378490211035626,39.888109752885391],[116.378873666759077,39.881983296296411],[116.38118809594657,39.882025332169015],[116.381722584015819,39.870311658857212]]]}},
{"type":"Feature","properties":{"fid":7,"name":"白纸坊街道","street_code":"XC11"},"geometry":{"type":"Polygon","coordinates":[[[116.368218122755934,39.869331213007307],[116.34540653278998,39.867670425820812],[116.344767808270888,39.867830503445106],[116.344528701678513,39.868317644810688],[116.343707010842763,39.876326609149558],[116.343316707695749,39.881970160080847],[116.359769354826796,39.882056859056519],[116.360755383829769,39.881972787324209],[116.368177991046394,39.881899224473891],[116.368218122755934,39.869331213007307]]]}},
{"type":"Feature","properties":{"fid":8,"name":"广安门外街道","street_code":"XC08"},"geometry":{"type":"Polygon","coordinates":[[[116.344767808270888,39.867830503445106],[116.344415858025712,39.867610396615405],[116.343633746369733,39.867990580695867],[116.343021092239212,39.868570857598719],[116.342734317965352,39.8690510830478],[116.343138408987613,39.872282512708857],[116.337989507252445,39.872312525273941],[116.338002542446702,39.87257263362126],[116.337807014532714,39.872592641914821],[116.337689697784327,39.87375311295478],[116.337064008459592,39.874333341112035],[116.335982087335495,39.87475350326519],[116.334261441692348,39.87475350326519],[116.326049269304576,39.874253309933891],[116.321148036260482,39.875093632646823],[116.318958123623744,39.875153655303784],[116.31706802045511,39.874923568166842],[116.314917213401188,39.874013215839149],[116.314930248595488,39.880275395202283],[116.315881817776912,39.880285398226256],[116.315868782582641,39.880605494222614],[116.315621113891567,39.880645506117091],[116.315595043503038,39.882486028025141],[116.315979581733927,39.882491029376048],[116.316944186109623,39.882936148147166],[116.316931150915352,39.883381264028678],[116.317191854800683,39.88339126659956],[116.317211407592055,39.88626194413596],[116.318019589636563,39.88632195701782],[116.317993519248034,39.888542396716097],[116.32002700955357,39.888602407601702],[116.320053079942099,39.889162506667439],[116.319609883337051,39.889622584619417],[116.319505601782922,39.891542876642738],[116.319609883337051,39.892342982442116],[116.319205792314776,39.892563009899625],[116.319544707365679,39.893083071991491],[116.31958381294848,39.895833334747785],[116.331876001141623,39.896133356735724],[116.336106370611574,39.896337048467281],[116.343049658174067,39.896510409972137],[116.343296165424888,39.893571085146185],[116.343275623153986,39.888354064202325],[116.343316707695749,39.881970160080847],[116.343707010842763,39.876326609149558],[116.344528701678513,39.868317644810688],[116.344767808270888,39.867830503445106]]]}},
{"type":"Feature","properties":{"fid":9,"name":"月坛街道","street_code":"XC05"},"geometry":{"type":"Polygon","coordinates":[[[116.331876001141623,39.896133356735724],[116.331823860364537,39.897273428311706],[116.331563156479234,39.897303429939171],[116.331524050896419,39.897593444994193],[116.328591132186517,39.897623446481568],[116.32856506179796,39.901633527082424],[116.329112539957165,39.901713526302885],[116.328864871266092,39.901993522839014],[116.329581806950728,39.902213519314742],[116.328760589711962,39.90298350141731],[116.328552026603703,39.903623479956757],[116.328486850632387,39.906153336597676],[116.329060399180108,39.906233330540957],[116.32886487126612,39.908313140281628],[116.328174005969998,39.910312897794789],[116.328239181941342,39.91088281799626],[116.328369533884,39.916941676418276],[116.350167555039221,39.917113664734828],[116.350516773644443,39.910637898285522],[116.35010592822654,39.907896148454256],[116.350475689102652,39.902160178971137],[116.351174126313083,39.90064731578412],[116.352324493483209,39.89903986204947],[116.353002388422723,39.8986301129098],[116.354070586509252,39.89828340018569],[116.354060315373815,39.898054884022095],[116.352755881171973,39.897999724833959],[116.352478560514896,39.897834247003161],[116.351708225356347,39.897739688063311],[116.351174126313083,39.897779087637431],[116.350660569540707,39.897936685707435],[116.350280537529159,39.898244000901506],[116.350157283903769,39.898464636601204],[116.350290808664596,39.8990792608761],[116.343645384030069,39.898890146301731],[116.342946946819637,39.898677391781732],[116.343049658174067,39.896510409972137],[116.336106370611574,39.896337048467281],[116.331876001141623,39.896133356735724]]]}},
{"type":"Feature","properties":{"fid":10,"name":"展览路街道","street_code":"XC04"},"geometry":{"type":"Polygon","coordinates":[[[116.328369533884,39.916941676418276],[116.328447745049573,39.921730394815761],[116.326753169794983,39.93699407371777],[116.324732714683662,39.937143994743529],[116.323637758365322,39.938513258247106],[116.322881717097872,39.938523252770494],[116.322373344521509,39.939727582153708],[116.322282098161651,39.940457165578259],[116.321747655196717,39.941076805665475],[116.323090280206145,39.941736416366567],[116.324915207403421,39.942146171327416],[116.32601016372179,39.942775790021685],[116.326753169794955,39.942775790021685],[116.327795985336266,39.942156165320185],[116.328656308157861,39.942216129246219],[116.329581806950756,39.94186633893689],[116.330578999312152,39.941861341919513],[116.332130187429826,39.941491561621127],[116.332547313646344,39.941261697185176],[116.333042651028464,39.941771395544372],[116.333811727490172,39.941641472793755],[116.334254924095248,39.941111785180489],[116.33482847264294,39.940921896169712],[116.335675760270263,39.941031831977014],[116.336575188674615,39.941891324018279],[116.34070734525703,39.942301078051457],[116.343927038240793,39.94156152020922],[116.345035029753433,39.941721425284868],[116.345804106215127,39.942081210338742],[116.346129986071801,39.942740811357325],[116.345673754272511,39.943870113489538],[116.345230557667449,39.944030013169922],[116.344891642616517,39.944689595401393],[116.344839501839459,39.946048714493571],[116.345543402329866,39.94948636579457],[116.347185836807398,39.949906067201617],[116.347785455743647,39.949726195485347],[116.349401819832693,39.949706209709895],[116.349949297991856,39.948127314997421],[116.349975368380385,39.943490350250904],[116.350221531150495,39.943409466950342],[116.349941590059359,39.942057760954206],[116.349315050797074,39.941467146990739],[116.349181526036276,39.940805653299307],[116.349232881713476,39.939120390472624],[116.349972403465657,39.922281233697909],[116.350167555039221,39.917113664734828],[116.328369533884,39.916941676418276]]]}},
{"type":"Feature","properties":{"fid":11,"name":"新街口街道","street_code":"XC02"},"geometry":{"type":"Polygon","coordinates":[[[116.350221531150495,39.943409466950342],[116.350705339259292,39.94325049869834],[116.355580501914901,39.944649620901721],[116.355997628131419,39.944649620901721],[116.360299242239293,39.946148648655289],[116.360116749519563,39.946388490047845],[116.362775929149862,39.947227928300144],[116.365409038391661,39.947667629940575],[116.365425326746333,39.947294315095569],[116.365707989024841,39.947309363629472],[116.365954290221893,39.946380899924407],[116.366159712930894,39.942128634287251],[116.366570558348783,39.938317119753002],[116.366837607870437,39.931197524022231],[116.367207368746548,39.922643579085232],[116.367000693511713,39.9226392339867],[116.349972403465657,39.922281233697909],[116.349232881713476,39.939120390472624],[116.349181526036276,39.940805653299307],[116.349315050797074,39.941467146990739],[116.349941590059359,39.942057760954206],[116.350221531150495,39.943409466950342]]]}},
{"type":"Feature","properties":{"fid":12,"name":"金融街街道","street_code":"XC06"},"geometry":{"type":"Polygon","coordinates":[[[116.349972403465657,39.922281233697909],[116.367000693511713,39.9226392339867],[116.367104657392119,39.920957869036997],[116.367998246175958,39.898456756767096],[116.354060315373815,39.898054884022095],[116.354070586509252,39.89828340018569],[116.353002388422723,39.8986301129098],[116.352324493483209,39.89903986204947],[116.351174126313083,39.90064731578412],[116.350475689102652,39.902160178971137],[116.35010592822654,39.907896148454256],[116.350516773644443,39.910637898285522],[116.350167555039221,39.917113664734828],[116.349972403465657,39.922281233697909]]]}},
{"type":"Feature","properties":{"fid":13,"name":"广安门内街道","street_code":"XC09"},"geometry":{"type":"Polygon","coordinates":[[[116.343049658174067,39.896510409972137],[116.342946946819637,39.898677391781732],[116.343645384030069,39.898890146301731],[116.350290808664596,39.8990792608761],[116.350157283903769,39.898464636601204],[116.350280537529159,39.898244000901506],[116.350660569540707,39.897936685707435],[116.351174126313083,39.897779087637431],[116.351708225356347,39.897739688063311],[116.352478560514896,39.897834247003161],[116.352755881171973,39.897999724833959],[116.354060315373815,39.898054884022095],[116.367998246175958,39.898456756767096],[116.368177703581296,39.898462267023945],[116.368362871484393,39.895801201043412],[116.368219075588144,39.887983656381117],[116.357311129742953,39.887983656381117],[116.343275623153986,39.888354064202325],[116.343296165424888,39.893571085146185],[116.343049658174067,39.896510409972137]]]}},
{"type":"Feature","properties":{"fid":14,"name":"牛街街道","street_code":"XC10"},"geometry":{"type":"Polygon","coordinates":[[[116.343316707695749,39.881970160080847],[116.343275623153986,39.888354064202325],[116.357311129742953,39.887983656381117],[116.368219075588144,39.887983656381117],[116.368177991046394,39.881899224473891],[116.360755383829769,39.881972787324209],[116.359769354826796,39.882056859056519],[116.343316707695749,39.881970160080847]]]}},
{"type":"Feature","properties":{"fid":15,"name":"椿树街道","street_code":"XC12"},"geometry":{"type":"Polygon","coordinates":[[[116.368177703581296,39.898462267023945],[116.378004048362072,39.898763985207189],[116.378627159508326,39.891797973023692],[116.378490211035626,39.888109752885391],[116.368219075588144,39.887983656381117],[116.368362871484393,39.895801201043412],[116.368177703581296,39.898462267023945]]]}}
]
}
